[
  {
    "OBJECT_NAME": "STARLINK-11659 [DTC]",
    "OBJECT_ID": "25053B",
    "EPOCH": "2025-11-10T19:23:07.852992",
    "MEAN_MOTION": 15.70947037,
    "ECCENTRICITY": 0.0002585,
    "INCLINATION": 43.0017,
    "RA_OF_ASC_NODE": 108.7053,
    "ARG_OF_PERICENTER": 293.994,
    "MEAN_ANOMALY": 66.0656,
    "EPHEMERIS_TYPE": 0,
    "CLASSIFICATION_TYPE": "U",
    "NORAD_CAT_ID": 63266,
    "ELEMENT_SET_NO": 999,
    "REV_AT_EPOCH": 3897,
    "BSTAR": 0.0019436999999999998,
    "MEAN_MOTION_DOT": 0.00258018,
    "MEAN_MOTION_DDOT": 0.0,
    "TLE_LINE1": "1 63266U 25053B   25314.80772978  .00258018  00000+0  19437-2 0  9990",
    "TLE_LINE2": "2 63266  43.0017 108.7053 0002585 293.9940  66.0656 15.70947037 38979",
    "COMMENT": "Grouped by shell and plane from TLE"
  },
  {
    "OBJECT_NAME": "STARLINK-11653 [DTC]",
    "OBJECT_ID": "25053C",
    "EPOCH": "2025-11-11T03:32:49.746336",
    "MEAN_MOTION": 15.71059378,
    "ECCENTRICITY": 0.0002036,
    "INCLINATION": 43.0012,
    "RA_OF_ASC_NODE": 106.9646,
    "ARG_OF_PERICENTER": 298.9253,
    "MEAN_ANOMALY": 61.141,
    "EPHEMERIS_TYPE": 0,
    "CLASSIFICATION_TYPE": "U",
    "NORAD_CAT_ID": 63267,
    "ELEMENT_SET_NO": 999,
    "REV_AT_EPOCH": 3902,
    "BSTAR": 0.0024866,
    "MEAN_MOTION_DOT": 0.00334882,
    "MEAN_MOTION_DDOT": 0.0,
    "TLE_LINE1": "1 63267U 25053C   25315.14779799  .00334882  00000+0  24866-2 0  9993",
    "TLE_LINE2": "2 63267  43.0012 106.9646 0002036 298.9253  61.1410 15.71059378 39020",
    "COMMENT": "Grouped by shell and plane from TLE"
  },
  {
    "OBJECT_NAME": "STARLINK-11641 [DTC]",
    "OBJECT_ID": "25053D",
    "EPOCH": "2025-11-10T19:00:11.407680",
    "MEAN_MOTION": 15.70918031,
    "ECCENTRICITY": 0.0003057,
    "INCLINATION": 43.0026,
    "RA_OF_ASC_NODE": 108.5753,
    "ARG_OF_PERICENTER": 270.018,
    "MEAN_ANOMALY": 90.0338,
    "EPHEMERIS_TYPE": 0,
    "CLASSIFICATION_TYPE": "U",
    "NORAD_CAT_ID": 63268,
    "ELEMENT_SET_NO": 999,
    "REV_AT_EPOCH": 3897,
    "BSTAR": 0.0017698,
    "MEAN_MOTION_DOT": 0.00233928,
    "MEAN_MOTION_DDOT": 0.0,
    "TLE_LINE1": "1 63268U 25053D   25314.79179870  .00233928  00000+0  17698-2 0  9992",
    "TLE_LINE2": "2 63268  43.0026 108.5753 0003057 270.0180  90.0338 15.70918031 38979",
    "COMMENT": "Grouped by shell and plane from TLE"
  },
  {
    "OBJECT_NAME": "STARLINK-11638 [DTC]",
    "OBJECT_ID": "25053E",
    "EPOCH": "2025-11-11T07:20:19.132800",
    "MEAN_MOTION": 15.70998361,
    "ECCENTRICITY": 0.0003952,
    "INCLINATION": 42.9994,
    "RA_OF_ASC_NODE": 105.5505,
    "ARG_OF_PERICENTER": 297.9262,
    "MEAN_ANOMALY": 62.1205,
    "EPHEMERIS_TYPE": 0,
    "CLASSIFICATION_TYPE": "U",
    "NORAD_CAT_ID": 63269,
    "ELEMENT_SET_NO": 999,
    "REV_AT_EPOCH": 3905,
    "BSTAR": 0.0022792000000000003,
    "MEAN_MOTION_DOT": 0.00305056,
    "MEAN_MOTION_DDOT": 0.0,
    "TLE_LINE1": "1 63269U 25053E   25315.30577700  .00305056  00000+0  22792-2 0  9998",
    "TLE_LINE2": "2 63269  42.9994 105.5505 0003952 297.9262  62.1205 15.70998361 39054",
    "COMMENT": "Grouped by shell and plane from TLE"
  },
  {
    "OBJECT_NAME": "STARLINK-11614 [DTC]",
    "OBJECT_ID": "25053F",
    "EPOCH": "2025-11-11T03:31:30.673056",
    "MEAN_MOTION": 15.70931976,
    "ECCENTRICITY": 0.0001933,
    "INCLINATION": 43.0008,
    "RA_OF_ASC_NODE": 106.9601,
    "ARG_OF_PERICENTER": 288.654,
    "MEAN_ANOMALY": 71.4118,
    "EPHEMERIS_TYPE": 0,
    "CLASSIFICATION_TYPE": "U",
    "NORAD_CAT_ID": 63270,
    "ELEMENT_SET_NO": 999,
    "REV_AT_EPOCH": 3902,
    "BSTAR": 0.0020249,
    "MEAN_MOTION_DOT": 0.00268995,
    "MEAN_MOTION_DDOT": 0.0,
    "TLE_LINE1": "1 63270U 25053F   25315.14688279  .00268995  00000+0  20249-2 0  9991",
    "TLE_LINE2": "2 63270  43.0008 106.9601 0001933 288.6540  71.4118 15.70931976 39021",
    "COMMENT": "Grouped by shell and plane from TLE"
  },
  {
    "OBJECT_NAME": "STARLINK-11620 [DTC]",
    "OBJECT_ID": "25053G",
    "EPOCH": "2025-11-10T20:16:38.909856",
    "MEAN_MOTION": 15.70873031,
    "ECCENTRICITY": 0.000176,
    "INCLINATION": 43.0004,
    "RA_OF_ASC_NODE": 109.0056,
    "ARG_OF_PERICENTER": 270.0312,
    "MEAN_ANOMALY": 90.0354,
    "EPHEMERIS_TYPE": 0,
    "CLASSIFICATION_TYPE": "U",
    "NORAD_CAT_ID": 63271,
    "ELEMENT_SET_NO": 999,
    "REV_AT_EPOCH": 3897,
    "BSTAR": 0.0012967,
    "MEAN_MOTION_DOT": 0.00169611,
    "MEAN_MOTION_DDOT": 0.0,
    "TLE_LINE1": "1 63271U 25053G   25314.84489479  .00169611  00000+0  12967-2 0  9992",
    "TLE_LINE2": "2 63271  43.0004 109.0056 0001760 270.0312  90.0354 15.70873031 38975",
    "COMMENT": "Grouped by shell and plane from TLE"
  },
  {
    "OBJECT_NAME": "STARLINK-11621 [DTC]",
    "OBJECT_ID": "25053J",
    "EPOCH": "2025-11-10T18:52:32.526912",
    "MEAN_MOTION": 15.7094593,
    "ECCENTRICITY": 0.0002259,
    "INCLINATION": 42.9992,
    "RA_OF_ASC_NODE": 108.5336,
    "ARG_OF_PERICENTER": 279.8945,
    "MEAN_ANOMALY": 80.1668,
    "EPHEMERIS_TYPE": 0,
    "CLASSIFICATION_TYPE": "U",
    "NORAD_CAT_ID": 63273,
    "ELEMENT_SET_NO": 999,
    "REV_AT_EPOCH": 3897,
    "BSTAR": 0.0015837000000000002,
    "MEAN_MOTION_DOT": 0.00208888,
    "MEAN_MOTION_DDOT": 0.0,
    "TLE_LINE1": "1 63273U 25053J   25314.78648758  .00208888  00000+0  15837-2 0  9993",
    "TLE_LINE2": "2 63273  42.9992 108.5336 0002259 279.8945  80.1668 15.70945930 38975",
    "COMMENT": "Grouped by shell and plane from TLE"
  },
  {
    "OBJECT_NAME": "STARLINK-11615 [DTC]",
    "OBJECT_ID": "25053K",
    "EPOCH": "2025-11-11T03:23:52.400544",
    "MEAN_MOTION": 15.70917904,
    "ECCENTRICITY": 0.0001016,
    "INCLINATION": 42.9995,
    "RA_OF_ASC_NODE": 106.9192,
    "ARG_OF_PERICENTER": 314.5938,
    "MEAN_ANOMALY": 45.4847,
    "EPHEMERIS_TYPE": 0,
    "CLASSIFICATION_TYPE": "U",
    "NORAD_CAT_ID": 63274,
    "ELEMENT_SET_NO": 999,
    "REV_AT_EPOCH": 3902,
    "BSTAR": 0.0021527,
    "MEAN_MOTION_DOT": 0.00286448,
    "MEAN_MOTION_DDOT": 0.0,
    "TLE_LINE1": "1 63274U 25053K   25315.14157871  .00286448  00000+0  21527-2 0  9997",
    "TLE_LINE2": "2 63274  42.9995 106.9192 0001016 314.5938  45.4847 15.70917904 39020",
    "COMMENT": "Grouped by shell and plane from TLE"
  },
  {
    "OBJECT_NAME": "STARLINK-11608 [DTC]",
    "OBJECT_ID": "25053L",
    "EPOCH": "2025-11-11T02:53:17.328480",
    "MEAN_MOTION": 15.70927527,
    "ECCENTRICITY": 0.000155,
    "INCLINATION": 42.9999,
    "RA_OF_ASC_NODE": 106.7474,
    "ARG_OF_PERICENTER": 301.6498,
    "MEAN_ANOMALY": 58.4218,
    "EPHEMERIS_TYPE": 0,
    "CLASSIFICATION_TYPE": "U",
    "NORAD_CAT_ID": 63275,
    "ELEMENT_SET_NO": 999,
    "REV_AT_EPOCH": 3901,
    "BSTAR": 0.0021566,
    "MEAN_MOTION_DOT": 0.00287098,
    "MEAN_MOTION_DDOT": 0.0,
    "TLE_LINE1": "1 63275U 25053L   25315.12033945  .00287098  00000+0  21566-2 0  9996",
    "TLE_LINE2": "2 63275  42.9999 106.7474 0001550 301.6498  58.4218 15.70927527 39014",
    "COMMENT": "Grouped by shell and plane from TLE"
  },
  {
    "OBJECT_NAME": "STARLINK-11623 [DTC]",
    "OBJECT_ID": "25053M",
    "EPOCH": "2025-11-10T20:09:00.016128",
    "MEAN_MOTION": 15.70889153,
    "ECCENTRICITY": 0.0001962,
    "INCLINATION": 42.9995,
    "RA_OF_ASC_NODE": 108.9634,
    "ARG_OF_PERICENTER": 263.7381,
    "MEAN_ANOMALY": 96.3263,
    "EPHEMERIS_TYPE": 0,
    "CLASSIFICATION_TYPE": "U",
    "NORAD_CAT_ID": 63276,
    "ELEMENT_SET_NO": 999,
    "REV_AT_EPOCH": 3896,
    "BSTAR": 0.001238,
    "MEAN_MOTION_DOT": 0.00161876,
    "MEAN_MOTION_DDOT": 0.0,
    "TLE_LINE1": "1 63276U 25053M   25314.83958352  .00161876  00000+0  12380-2 0  9991",
    "TLE_LINE2": "2 63276  42.9995 108.9634 0001962 263.7381  96.3263 15.70889153 38965",
    "COMMENT": "Grouped by shell and plane from TLE"
  },
  {
    "OBJECT_NAME": "STARLINK-11612 [DTC]",
    "OBJECT_ID": "25053N",
    "EPOCH": "2025-11-11T08:00:03.000384",
    "MEAN_MOTION": 15.84586533,
    "ECCENTRICITY": 0.0008869,
    "INCLINATION": 42.9954,
    "RA_OF_ASC_NODE": 105.3806,
    "ARG_OF_PERICENTER": 318.4755,
    "MEAN_ANOMALY": 199.9182,
    "EPHEMERIS_TYPE": 0,
    "CLASSIFICATION_TYPE": "U",
    "NORAD_CAT_ID": 63277,
    "ELEMENT_SET_NO": 999,
    "REV_AT_EPOCH": 579,
    "BSTAR": 0.0015137999999999998,
    "MEAN_MOTION_DOT": 0.00376185,
    "MEAN_MOTION_DDOT": 0.0,
    "TLE_LINE1": "1 63277U 25053N   25315.33336806  .00376185  00000+0  15138-2 0  9997",
    "TLE_LINE2": "2 63277  42.9954 105.3806 0008869 318.4755 199.9182 15.84586533  5795",
    "COMMENT": "Grouped by shell and plane from TLE"
  }
]